#aV2022  9 28  0  0  0.00000000     288 DD+AD WGS84 FIT  NGA
## 2229 259200.00000000   300.00000000 59850 0.0000000000000
+   32     1  2  3  4  5  6  7  8  9 10 11 12 13 14 15 16 17
+         18 19 20 21 22 23 24 25 26 27 28 29 30 31 32  0  0
+          0  0  0  0  0  0  0  0  0  0  0  0  0  0  0  0  0
+          0  0  0  0  0  0  0  0  0  0  0  0  0  0  0  0  0
+          0  0  0  0  0  0  0  0  0  0  0  0  0  0  0  0  0
++         2  2  2  2  2  2  2  2  2  2  2  2  2  2  2  2  2
++         2  2  2  2  2  2  2  2  2  2  2  2  2  2  2  0  0
++         0  0  0  0  0  0  0  0  0  0  0  0  0  0  0  0  0
++         0  0  0  0  0  0  0  0  0  0  0  0  0  0  0  0  0
++         0  0  0  0  0  0  0  0  0  0  0  0  0  0  0  0  0
%c cc cc ccc ccc cccc cccc cccc cccc ccccc ccccc ccccc ccccc
%c cc cc ccc ccc cccc cccc cccc cccc ccccc ccccc ccccc ccccc
%f  0.0000000  0.000000000  0.00000000000  0.000000000000000
%f  0.0000000  0.000000000  0.00000000000  0.000000000000000
%i    0    0    0    0      0      0      0      0         0
%i    0    0    0    0      0      0      0      0         0
/*      NGA, ST. LOUIS,MO.                                  
/*   EPHEMERIS COMPUTED FROM 2 DAYS OF DATA                 
/*   EPOCHA v8 SMOOTHER                                     
/*   G2139 IERS2010 SATIGS SATAPC                           
*  2022  9 28  8 15  0.00000000
P  1  14765.767993   -531.571621  21791.183878    276.407438                    
V  1   7708.644000  27234.681245  -4170.133728     -0.063347                    
P  2 -16466.887328  -4994.347124 -19566.649399   -644.459985                    
V  2  -8388.726004 -24916.380450  13169.781622      0.014126                    
P  3  20779.047735  -8119.637980  14203.848909   -357.673997                    
V  3 -11084.761263  14645.879867  24473.060458     -0.052143                    
P  4  24919.720589    -24.809265  -9330.284034   -112.041745                    
V  4  10776.788670   5433.381738  28663.531876      0.058345                    
P  5 -16697.703707  -2675.635884 -20690.224270    -98.333155                    
V  5  16190.464188 -20147.001963 -10425.004341     -0.014126                    
P  6  -6517.888298 -25658.240983   1609.667927    475.010253                    
V  6   2478.441976   1317.050824  32315.934401      0.117852                    
P  7   8485.900385 -16776.917923 -18142.907227    303.810814                    
V  7   8863.684350  22511.760912 -16781.273232     -0.034072                    
P  8  26122.573502   5779.962978   -463.877921    -86.468955                    
V  8  -1030.082680   2316.444812 -31536.933542     -0.015457                    
P  9  17536.436172  -9174.236679 -17811.192005   -290.410491                    
V  9  21629.950112   6287.734645  18096.308105      0.049564                    
P 10  -8190.136590  21643.798640  12899.555583     -5.181618                    
V 10 -12592.021375  10453.560696 -26135.625433     -0.015949                    
P 11 -12119.970060 -21675.259959  -9469.101165    -20.245591                    
V 11   -529.203228 -12239.664672  28656.155856     -0.035287                    
P 12 -21261.457078   6314.151675  14270.853923   -285.372573                    
V 12  12200.522844 -14205.641759  24117.193417     -0.060168                    
P 13 -21946.403348 -13511.520540  -6981.802081    395.938101                    
V 13   8823.608231    970.490511 -30169.304319      0.071711                    
P 14  10537.457202 -21651.190874  11092.824749   -100.079491                    
V 14  11973.190063  -8002.578208 -27120.079569      0.032269                    
P 15 -26524.753059  -3208.710687   -861.283991    -25.369410                    
V 15    907.935787  -3423.435125 -30865.915907      0.031362                    
P 16  11807.222129   9775.071783 -21991.719279   -525.221548                    
V 16 -20291.210774  18137.356285  -2418.427241     -0.008327                    
P 17   3398.034600 -14687.895233  22304.568222    663.524099                    
V 17  26100.987553   7712.255850   1184.312972      0.036961                    
P 18  -7629.973734  17959.546866 -17960.977302     33.462488                    
V 18  -7640.918733 -21548.812330 -18440.738780     -0.130174                    
P 19  -8409.484616 -16478.123566  18915.666030    216.611162                    
V 19  23396.034593   6997.480209  16047.245921      0.050608                    
P 20  -7293.628638 -15522.371748 -20325.916501    482.792681                    
V 20  15204.659369 -20904.908434  10275.497939     -0.030990                    
P 21  17589.577456   8474.636893  18940.279884    158.844513                    
V 21   7468.526232  21276.314824 -16286.236060     -0.005423                    
P 22  10993.060250  16710.874233  17981.416122    335.850774                    
V 22 -21301.836834  -5397.266601  18301.160738      0.068820                    
P 23 -15838.675953  21020.989326   2979.686168     -0.532512                    
V 23  -4481.836500   1121.396462 -31745.341800     -0.004006                    
P 24 -17073.533148  -3245.659907  19867.577980    119.862166                    
V 24  -8511.820841 -24517.201934 -10722.553473     -0.136855                    
P 25 -19873.549012  16650.414213   4753.821872    376.747197                    
V 25   2009.887811  -6916.055064  31028.356639      0.040166                    
P 26   4304.662593  17406.183163 -19581.238734    230.365113                    
V 26 -17103.298379  18121.136470  12725.163921      0.015423                    
P 27  20518.619232  12863.675265 -11570.479762    206.111590                    
V 27 -14241.109960  -1457.295397 -27003.388552     -0.050904                    
P 28   2880.935061 -19532.953977  18386.100361    334.845053                    
V 28  17413.400266 -13858.228169 -17710.996909     -0.034286                    
P 29 -18921.594241   6427.661182 -17581.693732   -555.267606                    
V 29 -20755.920154  -7870.205754  19428.184584     -0.031545                    
P 30    733.130562 -24364.215553 -10147.255154   -537.171060                    
V 30   6900.650926  11692.205765 -27581.239566     -0.001127                    
P 31   6923.879724  25374.694634    214.143804   -194.917672                    
V 31  -3398.127875    483.896236  31934.852607     -0.013163                    
P 32    795.109679  15700.946234  21576.466770   -246.668247                    
V 32 -26454.208680  -5571.764526   4872.522600     -0.115766                    
EOF
